CCSDS_OMM_VERS,COMMENT,CREATION_DATE,ORIGINATOR,OBJECT_NAME,OBJECT_ID,CENTER_NAME,REF_FRAME,TIME_SYSTEM,MEAN_ELEMENT_THEORY,EPOCH,MEAN_MOTION,ECCENTRICITY,INCLINATION,RA_OF_ASC_NODE,ARG_OF_PERICENTER,MEAN_ANOMALY,EPHEMERIS_TYPE,CLASSIFICATION_TYPE,NORAD_CAT_ID,ELEMENT_SET_NO,REV_AT_EPOCH,BSTAR,MEAN_MOTION_DOT,MEAN_MOTION_DDOT,SEMIMAJOR_AXIS,PERIOD,APOAPSIS,PERIAPSIS,OBJECT_TYPE,RCS_SIZE,COUNTRY_CODE,LAUNCH_DATE,SITE,DECAY_DATE,FILE,GP_ID,TLE_LINE0,TLE_LINE1,TLE_LINE2
"2.0","GENERATED VIA SPACE-TRACK.ORG API","2020-10-24T17:01:36","18 SPCS","ORBCOMM FM 30","1999-065A","EARTH","TEME","UTC","SGP4","2020-10-24T01:38:13.147008","14.32924268","0.00048100","45.0318","163.1051","188.9823","171.0938","0","U","25980","999","9080","0.00007177900000","0.00000057","0.0000000000000","7160.109","100.493","785.418","778.530","PAYLOAD","MEDIUM","ORB","1999-12-04","AFETR","","2860333","164134827","0 ORBCOMM FM 30","1 25980U 99065A   20298.06820772 +.00000057 +00000-0 +71779-4 0  9993","2 25980 045.0318 163.1051 0004810 188.9823 171.0938 14.32924268090803"
"2.0","GENERATED VIA SPACE-TRACK.ORG API","2020-10-24T03:03:54","18 SPCS","ORBCOMM FM 30","1999-065A","EARTH","TEME","UTC","SGP4","2020-10-23T22:17:25.514592","14.32924204","0.00048020","45.0318","163.7603","188.3252","171.7516","0","U","25980","999","9078","0.00007169500000","0.00000057","0.0000000000000","7160.110","100.493","785.413","778.536","PAYLOAD","MEDIUM","ORB","1999-12-04","AFETR","","2859572","164098225","0 ORBCOMM FM 30","1 25980U 99065A   20297.92876753 +.00000057 +00000-0 +71695-4 0  9994","2 25980 045.0318 163.7603 0004802 188.3252 171.7516 14.32924204090789"
"2.0","GENERATED VIA SPACE-TRACK.ORG API","2020-10-24T03:03:54","18 SPCS","CZ-4 DEB","1999-057SK","EARTH","TEME","UTC","SGP4","2020-10-23T20:59:12.079104","14.46992309","0.01163330","98.6992","315.9923","159.4672","323.8777","0","U","35331","999","35797","0.00017759000000","0.00000651","0.0000000000000","7113.625","99.516","818.245","652.736","DEBRIS","SMALL","PRC","1999-10-14","TSC","","2859572","164105096","0 CZ-4 DEB","1 35331U 99057SK  20297.87444536 +.00000651 +00000-0 +17759-3 0  9990","2 35331 098.6992 315.9923 0116333 159.4672 323.8777 14.46992309357978"
"2.0","GENERATED VIA SPACE-TRACK.ORG API","2020-10-23T19:20:01","18 SPCS","ORBCOMM FM 30","1999-065A","EARTH","TEME","UTC","SGP4","2020-10-23T12:15:02.622528","14.32924020","0.00047570","45.0319","165.7265","186.4698","173.6088","0","U","25980","999","9072","0.00007281900000","0.00000060","0.0000000000000","7160.110","100.493","785.381","778.569","PAYLOAD","MEDIUM","ORB","1999-12-04","AFETR","","2859383","164073113","0 ORBCOMM FM 30","1 25980U 99065A   20297.51044702 +.00000060 +00000-0 +72819-4 0  9993","2 25980 045.0319 165.7265 0004757 186.4698 173.6088 14.32924020090723"
"2.0","GENERATED VIA SPACE-TRACK.ORG API","2020-10-23T03:05:33","18 SPCS","ORBCOMM FM 30","1999-065A","EARTH","TEME","UTC","SGP4","2020-10-22T17:50:40.638624","14.32923720","0.00046950","45.0320","169.3307","182.7894","177.2928","0","U","25980","999","9061","0.00007673000000","0.00000071","0.0000000000000","7160.111","100.493","785.338","778.614","PAYLOAD","MEDIUM","ORB","1999-12-04","AFETR","","2858917","164025534","0 ORBCOMM FM 30","1 25980U 99065A   20296.74352591 +.00000071 +00000-0 +76730-4 0  9993","2 25980 045.0320 169.3307 0004695 182.7894 177.2928 14.32923720090617"
"2.0","GENERATED VIA SPACE-TRACK.ORG API","2020-10-22T18:40:49","18 SPCS","ORBCOMM FM 30","1999-065A","EARTH","TEME","UTC","SGP4","2020-10-22T12:49:29.187840","14.32923643","0.00046700","45.0320","170.3137","181.7977","178.2854","0","U","25980","999","9058","0.00007874100000","0.00000076","0.0000000000000","7160.111","100.493","785.320","778.633","PAYLOAD","MEDIUM","ORB","1999-12-04","AFETR","","2858656","163998297","0 ORBCOMM FM 30","1 25980U 99065A   20296.53436560 +.00000076 +00000-0 +78741-4 0  9998","2 25980 045.0320 170.3137 0004670 181.7977 178.2854 14.32923643090583"
"2.0","GENERATED VIA SPACE-TRACK.ORG API","2020-10-22T18:40:49","18 SPCS","CZ-4 DEB","1999-057SK","EARTH","TEME","UTC","SGP4","2020-10-22T06:31:41.079072","14.46990075","0.01162570","98.6994","314.3459","164.2674","256.5132","0","U","35331","999","93551","0.00017110000000","0.00000625","0.0000000000000","7113.633","99.516","818.199","652.797","DEBRIS","SMALL","PRC","1999-10-14","TSC","","2858656","164005679","0 CZ-4 DEB","1 35331U 99057SK  20296.27200323 +.00000625 +00000-0 +17110-3 0  9999","2 35331 098.6994 314.3459 0116257 164.2674 256.5132 14.46990075935515"
"2.0","GENERATED VIA SPACE-TRACK.ORG API","2020-10-23T19:20:01","18 SPCS","CZ-4 DEB","1999-057SK","EARTH","TEME","UTC","SGP4","2020-10-22T06:31:41.079072","14.46990075","0.01162570","98.6994","314.3459","164.2674","256.5132","0","U","35331","999","93551","0.00017110000000","0.00000625","0.0000000000000","7113.633","99.516","818.199","652.797","DEBRIS","SMALL","PRC","1999-10-14","TSC","","2859383","164077312","0 CZ-4 DEB","1 35331U 99057SK  20296.27200323 +.00000625 +00000-0 +17110-3 0  9999","2 35331 098.6994 314.3459 0116257 164.2674 256.5132 14.46990075935515"
"2.0","GENERATED VIA SPACE-TRACK.ORG API","2020-10-22T06:26:11","18 SPCS","ORBCOMM FM 30","1999-065A","EARTH","TEME","UTC","SGP4","2020-10-22T02:47:06.283680","14.32923466","0.00046360","45.0321","172.2797","179.6956","180.3894","0","U","25980","999","9105","0.00008042000000","0.00000081","0.0000000000000","7160.112","100.493","785.296","778.658","PAYLOAD","MEDIUM","ORB","1999-12-04","AFETR","","2858196","163981520","0 ORBCOMM FM 30","1 25980U 99065A   20296.11604495  .00000081  00000-0  80420-4 0  9999","2 25980  45.0321 172.2797 0004636 179.6956 180.3894 14.32923466 91056"
"2.0","GENERATED VIA SPACE-TRACK.ORG API","2020-10-21T19:12:42","18 SPCS","ORBCOMM FM 30","1999-065A","EARTH","TEME","UTC","SGP4","2020-10-21T03:21:32.818752","14.32923041","0.00045530","45.0322","176.8670","174.9519","185.1374","0","U","25980","999","9038","0.00008308100000","0.00000088","0.0000000000000","7160.113","100.493","785.238","778.718","PAYLOAD","MEDIUM","ORB","1999-12-04","AFETR","","2857849","163956859","0 ORBCOMM FM 30","1 25980U 99065A   20295.13996318 +.00000088 +00000-0 +83081-4 0  9991","2 25980 045.0322 176.8670 0004553 174.9519 185.1374 14.32923041090388"
"2.0","GENERATED VIA SPACE-TRACK.ORG API","2020-10-21T02:27:55","18 SPCS","ORBCOMM FM 30","1999-065A","EARTH","TEME","UTC","SGP4","2020-10-20T20:39:57.533184","14.32922926","0.00045320","45.0322","178.1776","173.6683","186.4221","0","U","25980","999","9087","0.00008270400000","0.00000087","0.0000000000000","7160.114","100.493","785.224","778.734","PAYLOAD","MEDIUM","ORB","1999-12-04","AFETR","","2857505","163930852","0 ORBCOMM FM 30","1 25980U 99065A   20294.86108256 +.00000087 +00000-0 +82704-4 0  9996","2 25980 045.0322 178.1776 0004532 173.6683 186.4221 14.32922926090875"
"2.0","GENERATED VIA SPACE-TRACK.ORG API","2020-10-20T17:38:06","18 SPCS","ORBCOMM FM 30","1999-065A","EARTH","TEME","UTC","SGP4","2020-10-20T08:57:10.784736","14.32922724","0.00044850","45.0322","180.4713","171.3059","188.7866","0","U","25980","999","9027","0.00008202300000","0.00000085","0.0000000000000","7160.114","100.493","785.191","778.768","PAYLOAD","MEDIUM","ORB","1999-12-04","AFETR","","2857328","163907290","0 ORBCOMM FM 30","1 25980U 99065A   20294.37304149 +.00000085 +00000-0 +82023-4 0  9993","2 25980 045.0322 180.4713 0004485 171.3059 188.7866 14.32922724090271"
"2.0","GENERATED VIA SPACE-TRACK.ORG API","2020-10-20T04:05:29","18 SPCS","ORBCOMM FM 30","1999-065A","EARTH","TEME","UTC","SGP4","2020-10-19T22:54:47.850336","14.32922576","0.00044540","45.0322","182.4372","169.2085","190.8858","0","U","25980","999","9074","0.00008297700000","0.00000088","0.0000000000000","7160.115","100.493","785.169","778.791","PAYLOAD","MEDIUM","ORB","1999-12-04","AFETR","","2857063","163819968","0 ORBCOMM FM 30","1 25980U 99065A   20293.95472049 +.00000088 +00000-0 +82977-4 0  9992","2 25980 045.0322 182.4372 0004454 169.2085 190.8858 14.32922576090747"
"2.0","GENERATED VIA SPACE-TRACK.ORG API","2020-10-20T04:05:29","18 SPCS","CZ-4 DEB","1999-057SK","EARTH","TEME","UTC","SGP4","2020-10-19T20:44:02.478048","14.46986776","0.01161350","98.6996","311.8718","171.4775","312.4564","0","U","35331","999","93517","0.00016142000000","0.00000586","0.0000000000000","7113.644","99.517","818.123","652.894","DEBRIS","SMALL","PRC","1999-10-14","TSC","","2857063","163826391","0 CZ-4 DEB","1 35331U 99057SK  20293.86391757 +.00000586 +00000-0 +16142-3 0  9993","2 35331 098.6996 311.8718 0116135 171.4775 312.4564 14.46986776935170"
"2.0","GENERATED VIA SPACE-TRACK.ORG API","2020-10-20T17:38:06","18 SPCS","CZ-4 DEB","1999-057SK","EARTH","TEME","UTC","SGP4","2020-10-19T20:44:02.478048","14.46986776","0.01161350","98.6996","311.8718","171.4775","312.4564","0","U","35331","999","93517","0.00016142000000","0.00000586","0.0000000000000","7113.644","99.517","818.123","652.894","DEBRIS","SMALL","PRC","1999-10-14","TSC","","2857328","163912715","0 CZ-4 DEB","1 35331U 99057SK  20293.86391757 +.00000586 +00000-0 +16142-3 0  9993","2 35331 098.6996 311.8718 0116135 171.4775 312.4564 14.46986776935170"
"2.0","GENERATED VIA SPACE-TRACK.ORG API","2020-10-21T02:27:55","18 SPCS","CZ-4 DEB","1999-057SK","EARTH","TEME","UTC","SGP4","2020-10-19T20:44:02.478048","14.46986776","0.01161350","98.6996","311.8718","171.4775","312.4564","0","U","35331","999","93517","0.00016142000000","0.00000586","0.0000000000000","7113.644","99.517","818.123","652.894","DEBRIS","SMALL","PRC","1999-10-14","TSC","","2857505","163937119","0 CZ-4 DEB","1 35331U 99057SK  20293.86391757 +.00000586 +00000-0 +16142-3 0  9993","2 35331 098.6996 311.8718 0116135 171.4775 312.4564 14.46986776935170"
